{"type": "FeatureCollection", "features": [ {"type": "Feature", "properties": {"norad_id": 36005, "name": "COSMOS 2251 DEB", "group": "cosmos-2251-debris", "lat": 24.70086634214596, "lon": 114.90842949156342, "alt_km": 766.9985745696176, "timestamp": "2025-12-05T14:45:15.694600+00:00", "meta": {"OBJECT_NAME": "COSMOS 2251 DEB", "OBJECT_ID": "1993-036AWX", "EPOCH": "2025-12-03T02:54:52.272576", "MEAN_MOTION": 14.47331723, "ECCENTRICITY": 0.00621511, "INCLINATION": 74.026, "RA_OF_ASC_NODE": 112.0007, "ARG_OF_PERICENTER": 251.2803, "MEAN_ANOMALY": 108.1604, "EPHEMERIS_TYPE": 0, "CLASSIFICATION_TYPE": "U", "NORAD_CAT_ID": 36005, "ELEMENT_SET_NO": 999, "REV_AT_EPOCH": 87445, "BSTAR": 0.00029551015, "MEAN_MOTION_DOT": 1.08e-05, "MEAN_MOTION_DDOT": 0}, "tle": {"line1": "1 36005U 93036AWX 25337.12143834  .00001080  00000+0  29551-3 0  9994", "line2": "2 36005  74.0260 112.0007 0062151 251.2803 108.1604 14.47331723874455"}}, "geometry": {"type": "Point", "coordinates": [114.90842949156342, 24.70086634214596]}}, {"type": "Feature", "properties": {"norad_id": 36045, "name": "COSMOS 2251 DEB", "group": "cosmos-2251-debris", "lat": -45.39938917463742, "lon": -89.68425219394997, "alt_km": 694.3714492163945, "timestamp": "2025-12-05T14:45:15.694610+00:00", "meta": {"OBJECT_NAME": "COSMOS 2251 DEB", "OBJECT_ID": "1993-036AXG", "EPOCH": "2025-12-01T23:07:36.106176", "MEAN_MOTION": 14.69377741, "ECCENTRICITY": 0.00488719, "INCLINATION": 73.7639, "RA_OF_ASC_NODE": 80.3157, "ARG_OF_PERICENTER": 97.908, "MEAN_ANOMALY": 262.764, "EPHEMERIS_TYPE": 0, "CLASSIFICATION_TYPE": "U", "NORAD_CAT_ID": 36045, "ELEMENT_SET_NO": 999, "REV_AT_EPOCH": 8230, "BSTAR": 0.0029815468, "MEAN_MOTION_DOT": 0.0001797, "MEAN_MOTION_DDOT": 0}, "tle": {"line1": "1 36045U 93036AXG 25335.96361234  .00017970  00000+0  29815-2 0  9991", "line2": "2 36045  73.7639  80.3157 0048871  97.9080 262.7640 14.69377741 82309"}}, "geometry": {"type": "Point", "coordinates": [-89.68425219394997, -45.39938917463742]}}, {"type": "Feature", "properties": {"norad_id": 36046, "name": "COSMOS 2251 DEB", "group": "cosmos-2251-debris", "lat": 41.20575450818319, "lon": -55.23568978042257, "alt_km": 640.9064364419401, "timestamp": "2025-12-05T14:45:15.694620+00:00", "meta": {"OBJECT_NAME": "COSMOS 2251 DEB", "OBJECT_ID": "1993-036AXH", "EPOCH": "2025-12-01T14:24:58.053024", "MEAN_MOTION": 14.65147038, "ECCENTRICITY": 0.00552553, "INCLINATION": 74.0167, "RA_OF_ASC_NODE": 297.9586, "ARG_OF_PERICENTER": 87.1353, "MEAN_ANOMALY": 32.6466, "EPHEMERIS_TYPE": 0, "CLASSIFICATION_TYPE": "U", "NORAD_CAT_ID": 36046, "ELEMENT_SET_NO": 999, "REV_AT_EPOCH": 63840, "BSTAR": 0.0006286755, "MEAN_MOTION_DOT": 3.426e-05, "MEAN_MOTION_DDOT": 0}, "tle": {"line1": "1 36046U 93036AXH 25335.60067191  .00003426  00000+0  62868-3 0  9995", "line2": "2 36046  74.0167 297.9586 0055255  87.1353  32.6466 14.65147038638408"}}, "geometry": {"type": "Point", "coordinates": [-55.23568978042257, 41.20575450818319]}}, {"type": "Feature", "properties": {"norad_id": 36047, "name": "COSMOS 2251 DEB", "group": "cosmos-2251-debris", "lat": -73.47554580816218, "lon": -86.24419533024671, "alt_km": 588.7028948400057, "timestamp": "2025-12-05T14:45:15.694631+00:00", "meta": {"OBJECT_NAME": "COSMOS 2251 DEB", "OBJECT_ID": "1993-036AXJ", "EPOCH": "2025-12-03T18:10:50.756160", "MEAN_MOTION": 14.95364522, "ECCENTRICITY": 0.00078423, "INCLINATION": 74.0348, "RA_OF_ASC_NODE": 352.2907, "ARG_OF_PERICENTER": 18.0542, "MEAN_ANOMALY": 342.0919, "EPHEMERIS_TYPE": 0, "CLASSIFICATION_TYPE": "U", "NORAD_CAT_ID": 36047, "ELEMENT_SET_NO": 999, "REV_AT_EPOCH": 65805, "BSTAR": 0.0029851567, "MEAN_MOTION_DOT": 0.00033093, "MEAN_MOTION_DDOT": 0}, "tle": {"line1": "1 36047U 93036AXJ 25337.75753190  .00033093  00000+0  29852-2 0  9993", "line2": "2 36047  74.0348 352.2907 0007842  18.0542 342.0919 14.95364522658050"}}, "geometry": {"type": "Point", "coordinates": [-86.24419533024671, -73.47554580816218]}}, {"type": "Feature", "properties": {"norad_id": 36048, "name": "COSMOS 2251 DEB", "group": "cosmos-2251-debris", "lat": -61.86018958436319, "lon": 164.6989963237123, "alt_km": 781.1076979505597, "timestamp": "2025-12-05T14:45:15.694641+00:00", "meta": {"OBJECT_NAME": "COSMOS 2251 DEB", "OBJECT_ID": "1993-036AXK", "EPOCH": "2025-12-03T17:20:47.779872", "MEAN_MOTION": 14.37824674, "ECCENTRICITY": 0.00262269, "INCLINATION": 74.0561, "RA_OF_ASC_NODE": 315.8673, "ARG_OF_PERICENTER": 7.889, "MEAN_ANOMALY": 169.513, "EPHEMERIS_TYPE": 0, "CLASSIFICATION_TYPE": "U", "NORAD_CAT_ID": 36048, "ELEMENT_SET_NO": 999, "REV_AT_EPOCH": 85372, "BSTAR": 0.00041796322, "MEAN_MOTION_DOT": 1.239e-05, "MEAN_MOTION_DDOT": 0}, "tle": {"line1": "1 36048U 93036AXK 25337.72277523  .00001239  00000+0  41796-3 0  9991", "line2": "2 36048  74.0561 315.8673 0026226   7.8890 169.5130 14.37824674853725"}}, "geometry": {"type": "Point", "coordinates": [164.6989963237123, -61.86018958436319]}}, {"type": "Feature", "properties": {"norad_id": 36049, "name": "COSMOS 2251 DEB", "group": "cosmos-2251-debris", "lat": 73.92745536933836, "lon": -130.88432135714388, "alt_km": 684.0151543180136, "timestamp": "2025-12-05T14:45:15.694651+00:00", "meta": {"OBJECT_NAME": "COSMOS 2251 DEB", "OBJECT_ID": "1993-036AXL", "EPOCH": "2025-12-02T10:47:16.230624", "MEAN_MOTION": 14.61903141, "ECCENTRICITY": 0.00113733, "INCLINATION": 74.0292, "RA_OF_ASC_NODE": 138.8873, "ARG_OF_PERICENTER": 223.356, "MEAN_ANOMALY": 136.6713, "EPHEMERIS_TYPE": 0, "CLASSIFICATION_TYPE": "U", "NORAD_CAT_ID": 36049, "ELEMENT_SET_NO": 999, "REV_AT_EPOCH": 85214, "BSTAR": 0.0017572589, "MEAN_MOTION_DOT": 8.782e-05, "MEAN_MOTION_DDOT": 0}, "tle": {"line1": "1 36049U 93036AXL 25336.44949341  .00008782  00000+0  17573-2 0  9999", "line2": "2 36049  74.0292 138.8873 0011373 223.3560 136.6713 14.61903141852149"}}, "geometry": {"type": "Point", "coordinates": [-130.88432135714388, 73.92745536933836]}}, {"type": "Feature", "properties": {"norad_id": 36050, "name": "COSMOS 2251 DEB", "group": "cosmos-2251-debris", "lat": -61.33213878714028, "lon": 60.11535607062414, "alt_km": 526.3057959498428, "timestamp": "2025-12-05T14:45:15.694684+00:00", "meta": {"OBJECT_NAME": "COSMOS 2251 DEB", "OBJECT_ID": "1993-036AXM", "EPOCH": "2025-12-03T08:51:43.557696", "MEAN_MOTION": 15.00813844, "ECCENTRICITY": 0.00890805, "INCLINATION": 74.0318, "RA_OF_ASC_NODE": 213.1033, "ARG_OF_PERICENTER": 294.9563, "MEAN_ANOMALY": 64.2389, "EPHEMERIS_TYPE": 0, "CLASSIFICATION_TYPE": "U", "NORAD_CAT_ID": 36050, "ELEMENT_SET_NO": 999, "REV_AT_EPOCH": 66894, "BSTAR": 0.00068060745, "MEAN_MOTION_DOT": 9.378e-05, "MEAN_MOTION_DDOT": 0}, "tle": {"line1": "1 36050U 93036AXM 25337.36925414  .00009378  00000+0  68061-3 0  9999", "line2": "2 36050  74.0318 213.1033 0089080 294.9563  64.2389 15.00813844668944"}}, "geometry": {"type": "Point", "coordinates": [60.11535607062414, -61.33213878714028]}}, {"type": "Feature", "properties": {"norad_id": 36053, "name": "COSMOS 2251 DEB", "group": "cosmos-2251-debris", "lat": -16.7917873749917, "lon": -8.63195602543832, "alt_km": 702.8433369598379, "timestamp": "2025-12-05T14:45:15.694696+00:00", "meta": {"OBJECT_NAME": "COSMOS 2251 DEB", "OBJECT_ID": "1993-036AXQ", "EPOCH": "2025-12-01T06:02:04.873920", "MEAN_MOTION": 14.56926822, "ECCENTRICITY": 0.0033176, "INCLINATION": 73.8721, "RA_OF_ASC_NODE": 174.7239, "ARG_OF_PERICENTER": 127.7081, "MEAN_ANOMALY": 232.7098, "EPHEMERIS_TYPE": 0, "CLASSIFICATION_TYPE": "U", "NORAD_CAT_ID": 36053, "ELEMENT_SET_NO": 999, "REV_AT_EPOCH": 87277, "BSTAR": 0.0017117, "MEAN_MOTION_DOT": 7.72e-05, "MEAN_MOTION_DDOT": 0}, "tle": {"line1": "1 36053U 93036AXQ 25335.25144530  .00007720  00000+0  17117-2 0  9994", "line2": "2 36053  73.8721 174.7239 0033176 127.7081 232.7098 14.56926822872773"}}, "geometry": {"type": "Point", "coordinates": [-8.63195602543832, -16.7917873749917]}}, {"type": "Feature", "properties": {"norad_id": 36058, "name": "COSMOS 2251 DEB", "group": "cosmos-2251-debris", "lat": -68.7789502777021, "lon": -0.500949566050583, "alt_km": 710.6201919153755, "timestamp": "2025-12-05T14:45:15.694706+00:00", "meta": {"OBJECT_NAME": "COSMOS 2251 DEB", "OBJECT_ID": "1993-036AXV", "EPOCH": "2025-12-02T21:15:38.245248", "MEAN_MOTION": 14.58601869, "ECCENTRICITY": 0.00452241, "INCLINATION": 74.0244, "RA_OF_ASC_NODE": 52.2381, "ARG_OF_PERICENTER": 188.8228, "MEAN_ANOMALY": 171.2148, "EPHEMERIS_TYPE": 0, "CLASSIFICATION_TYPE": "U", "NORAD_CAT_ID": 36058, "ELEMENT_SET_NO": 999, "REV_AT_EPOCH": 65967, "BSTAR": 0.00090546257, "MEAN_MOTION_DOT": 4.247e-05, "MEAN_MOTION_DDOT": 0}, "tle": {"line1": "1 36058U 93036AXV 25336.88585932  .00004247  00000+0  90546-3 0  9993", "line2": "2 36058  74.0244  52.2381 0045224 188.8228 171.2148 14.58601869659675"}}, "geometry": {"type": "Point", "coordinates": [-0.500949566050583, -68.7789502777021]}}, {"type": "Feature", "properties": {"norad_id": 36060, "name": "COSMOS 2251 DEB", "group": "cosmos-2251-debris", "lat": -67.27578862478333, "lon": 110.92070265052483, "alt_km": 759.1872699895966, "timestamp": "2025-12-05T14:45:15.694716+00:00", "meta": {"OBJECT_NAME": "COSMOS 2251 DEB", "OBJECT_ID": "1993-036AXX", "EPOCH": "2025-12-04T02:36:53.095968", "MEAN_MOTION": 14.41968213, "ECCENTRICITY": 0.00149828, "INCLINATION": 74.0291, "RA_OF_ASC_NODE": 250.5702, "ARG_OF_PERICENTER": 348.4876, "MEAN_ANOMALY": 11.5935, "EPHEMERIS_TYPE": 0, "CLASSIFICATION_TYPE": "U", "NORAD_CAT_ID": 36060, "ELEMENT_SET_NO": 999, "REV_AT_EPOCH": 84885, "BSTAR": 0.00063718489, "MEAN_MOTION_DOT": 2.066e-05, "MEAN_MOTION_DDOT": 0}, "tle": {"line1": "1 36060U 93036AXX 25338.10894787  .00002066  00000+0  63718-3 0  9992", "line2": "2 36060  74.0291 250.5702 0014982 348.4876  11.5935 14.41968213848851"}}, "geometry": {"type": "Point", "coordinates": [110.92070265052483, -67.27578862478333]}}]}